{
  "type": "FeatureCollection",
  "features": [
    {
      "type": "Feature",
      "properties": {
        "norad_id": 64202,
        "name": "GPS BIII-8  (PRN 21)",
        "group": "gnss",
        "lat": -52.78905503376288,
        "lon": -28.419679228909025,
        "alt_km": 20174.53787182054,
        "timestamp": "2025-12-22T11:33:20.683851+00:00",
        "meta_object_name": "GPS BIII-8  (PRN 21)",
        "meta_object_id": "2025-116A",
        "meta_epoch": "2025-12-21T15:32:25.982016",
        "meta_mean_motion": 2.00557819,
        "meta_eccentricity": 0.0005846,
        "meta_inclination": 55.1118,
        "meta_ra_of_asc_node": 38.2817,
        "meta_arg_of_pericenter": 310.1313,
        "meta_mean_anomaly": 91.6448,
        "meta_ephemeris_type": 0,
        "meta_classification_type": "U",
        "meta_norad_cat_id": 64202,
        "meta_element_set_no": 999,
        "meta_rev_at_epoch": 431,
        "meta_bstar": 0,
        "meta_mean_motion_dot": -5.4e-07,
        "meta_mean_motion_ddot": 0,
        "tle_line1": "1 64202U 25116A   25355.64752294 -.00000054  00000+0  00000+0 0  9996",
        "tle_line2": "2 64202  55.1118  38.2817 0005846 310.1313  91.6448  2.00557819  4318"
      },
      "geometry": {
        "type": "Point",
        "coordinates": [
          -28.419679228909025,
          -52.78905503376288
        ]
      }
    },
    {
      "type": "Feature",
      "properties": {
        "norad_id": 65590,
        "name": "COSMOS 2596 (708K)",
        "group": "gnss",
        "lat": -42.89748455871374,
        "lon": -64.88645347660143,
        "alt_km": 19099.34055948734,
        "timestamp": "2025-12-22T11:33:20.683862+00:00",
        "meta_object_name": "COSMOS 2596 (708K)",
        "meta_object_id": "2025-206B",
        "meta_epoch": "2025-12-22T03:59:43.719936",
        "meta_mean_motion": 2.1310041,
        "meta_eccentricity": 0.0014089,
        "meta_inclination": 64.7392,
        "meta_ra_of_asc_node": 321.1476,
        "meta_arg_of_pericenter": 307.2643,
        "meta_mean_anomaly": 122.2256,
        "meta_ephemeris_type": 0,
        "meta_classification_type": "U",
        "meta_norad_cat_id": 65590,
        "meta_element_set_no": 999,
        "meta_rev_at_epoch": 214,
        "meta_bstar": 0,
        "meta_mean_motion_dot": -4.3e-07,
        "meta_mean_motion_ddot": 0,
        "tle_line1": "1 65590U 25206B   25356.16647824 -.00000043  00000+0  00000+0 0  9995",
        "tle_line2": "2 65590  64.7392 321.1476 0014089 307.2643 122.2256  2.13100410  2148"
      },
      "geometry": {
        "type": "Point",
        "coordinates": [
          -64.88645347660143,
          -42.89748455871374
        ]
      }
    },
    {
      "type": "Feature",
      "properties": {
        "norad_id": 67160,
        "name": "GALILEO A",
        "group": "gnss",
        "lat": 1.1446284685961117,
        "lon": -73.70048052153584,
        "alt_km": 22931.3377296608,
        "timestamp": "2025-12-22T11:33:20.683874+00:00",
        "meta_object_name": "GALILEO A",
        "meta_object_id": "2025-302A",
        "meta_epoch": "2025-12-18T03:30:19.486368",
        "meta_mean_motion": 1.72906186,
        "meta_eccentricity": 0.00084238,
        "meta_inclination": 54.2406,
        "meta_ra_of_asc_node": 107.2544,
        "meta_arg_of_pericenter": 237.6458,
        "meta_mean_anomaly": 122.2317,
        "meta_ephemeris_type": 0,
        "meta_classification_type": "U",
        "meta_norad_cat_id": 67160,
        "meta_element_set_no": 999,
        "meta_rev_at_epoch": 2,
        "meta_bstar": 0,
        "meta_mean_motion_dot": -7e-08,
        "meta_mean_motion_ddot": 0,
        "tle_line1": "1 67160U 25302A   25352.14605887 -.00000007  00000+0  00000+0 0  9994",
        "tle_line2": "2 67160  54.2406 107.2544 0008423 237.6458 122.2317  1.72906186    28"
      },
      "geometry": {
        "type": "Point",
        "coordinates": [
          -73.70048052153584,
          1.1446284685961117
        ]
      }
    },
    {
      "type": "Feature",
      "properties": {
        "norad_id": 67161,
        "name": "GALILEO B",
        "group": "gnss",
        "lat": 0.11784107886610591,
        "lon": -72.99046723541437,
        "alt_km": 22933.280179770314,
        "timestamp": "2025-12-22T11:33:20.683887+00:00",
        "meta_object_name": "GALILEO B",
        "meta_object_id": "2025-302B",
        "meta_epoch": "2025-12-19T07:14:53.290752",
        "meta_mean_motion": 1.72972192,
        "meta_eccentricity": 0.00045866,
        "meta_inclination": 54.2272,
        "meta_ra_of_asc_node": 107.1916,
        "meta_arg_of_pericenter": 255.0301,
        "meta_mean_anomaly": 104.8802,
        "meta_ephemeris_type": 0,
        "meta_classification_type": "U",
        "meta_norad_cat_id": 67161,
        "meta_element_set_no": 999,
        "meta_rev_at_epoch": 5,
        "meta_bstar": 0,
        "meta_mean_motion_dot": -5e-08,
        "meta_mean_motion_ddot": 0,
        "tle_line1": "1 67161U 25302B   25353.30200568 -.00000005  00000+0  00000+0 0  9999",
        "tle_line2": "2 67161  54.2272 107.1916 0004586 255.0301 104.8802  1.72972192    57"
      },
      "geometry": {
        "type": "Point",
        "coordinates": [
          -72.99046723541437,
          0.11784107886610591
        ]
      }
    }
  ]
}